{
  "type": "FeatureCollection",
  "features": [
    {
      "type": "Feature",
      "geometry": {
        "type": "Point",
        "coordinates": [
          -43.2093727,
          -22.9110137
        ]
      },
      "properties": {
        "id": "cor-rio-2026-08-01-001",
        "fonte": "COR-Rio",
        "tipo": "vento_forte",
        "severidade": "baixa",
        "municipio": "Rio de Janeiro",
        "estado": "RJ",
        "data_ocorrencia": "2026-08-01T05:42:53",
        "descricao": "De acordo com o Sistema Alerta Rio, neste sábado (01/08), os ventos estarão moderados  (18,5km/h até 51,9km/h)  com rajadas pontualmente fortes (52km/h até 76km/h) a partir da tarde e as temperaturas apresentarão elevação, com máxima prevista de 31°C. Confira previsão para os próximos dias Entre domingo e terça-feira (2/8 e 4/8), um sistema de alta [&hellip;]",
        "url": "https://cor.rio/sabado-1-8-sera-de-temperaturas-e-elevadas-e-com-possibilidade-de-vento-forte/"
      }
    },
    {
      "type": "Feature",
      "geometry": {
        "type": "Point",
        "coordinates": [
          -43.2093727,
          -22.9110137
        ]
      },
      "properties": {
        "id": "cor-rio-2026-07-31-002",
        "fonte": "COR-Rio",
        "tipo": "vento_forte",
        "severidade": "baixa",
        "municipio": "Rio de Janeiro",
        "estado": "RJ",
        "data_ocorrencia": "2026-07-31T17:19:14",
        "descricao": "Segundo o Sistema Alerta Rio, para a noite desta sexta-feira (31/7) a nebulosidade segue variada na cidade do Rio, entretanto, não há previsão de chuva. Os ventos estarão predominantemente moderados (entre 18 km/h a 51,9 km/h). Ao longo do dia, os ventos estiveram fracos a moderados, e as temperaturas estáveis, com mínima registrada de 14,2°C [&hellip;]",
        "url": "https://cor.rio/sexta-feira-31-7-termina-sem-previsao-de-chuva-e-com-ventos-moderados-confira-os-proximos-dias/"
      }
    },
    {
      "type": "Feature",
      "geometry": {
        "type": "Point",
        "coordinates": [
          -43.2093727,
          -22.9110137
        ]
      },
      "properties": {
        "id": "cor-rio-2026-07-31-003",
        "fonte": "COR-Rio",
        "tipo": "outro",
        "severidade": "baixa",
        "municipio": "Rio de Janeiro",
        "estado": "RJ",
        "data_ocorrencia": "2026-07-31T05:14:41",
        "descricao": "Segundo o Sistema Alerta Rio, nesta sexta-feira (31/7), a entrada de ventos úmidos do oceano permanecerá influenciando o tempo na cidade do Rio. A previsão é de céu nublado a parcialmente nublado e chuva fraca de forma rápida e isolada no início da manhã. Os ventos estarão moderados e as temperaturas estáveis, com mínima prevista [&hellip;]",
        "url": "https://cor.rio/sexta-feira-31-7-sera-de-tempo-instavel-no-rio-com-possibilidade-de-chuva-fraca-em-pontos-isolados/"
      }
    },
    {
      "type": "Feature",
      "geometry": {
        "type": "Point",
        "coordinates": [
          -43.2093727,
          -22.9110137
        ]
      },
      "properties": {
        "id": "cor-rio-2026-07-30-004",
        "fonte": "COR-Rio",
        "tipo": "outro",
        "severidade": "baixa",
        "municipio": "Rio de Janeiro",
        "estado": "RJ",
        "data_ocorrencia": "2026-07-30T16:45:09",
        "descricao": "De acordo com o Alerta Rio, a previsão do tempo para a noite desta quinta-feira (30/07) é de céu nublado a parcialmente nublado, com ocorrência de chuvisco/chuva fraca isolada, e ventos moderados. Ao longo do dia, ventos úmidos oriundos do oceano influenciaram o tempo na cidade. Assim, o céu esteve parcialmente nublado a nublado e [&hellip;]",
        "url": "https://cor.rio/noite-desta-quinta-feira-30-07-tem-previsao-de-ventos-moderados-e-chuvisco-chuva-fraca-no-rio-confira/"
      }
    },
    {
      "type": "Feature",
      "geometry": {
        "type": "Point",
        "coordinates": [
          -43.2093727,
          -22.9110137
        ]
      },
      "properties": {
        "id": "cor-rio-2026-07-30-005",
        "fonte": "COR-Rio",
        "tipo": "outro",
        "severidade": "baixa",
        "municipio": "Rio de Janeiro",
        "estado": "RJ",
        "data_ocorrencia": "2026-07-30T05:19:20",
        "descricao": "Segundo o Alerta Rio, nesta quinta-feira (30/7), a entrada de ventos úmidos vindos do oceano influenciará o tempo na cidade do Rio. A previsão é de céu parcialmente nublado a nublado e chuvisco/chuva fraca isolada a partir da noite. Os ventos estarão predominantemente moderados e as temperaturas apresentarão declínio, com mínima prevista de 17°C e [&hellip;]",
        "url": "https://cor.rio/quinta-feira-30-7-com-previsao-de-chuvisco-chuva-fraca-isolada-e-ventos-moderados-na-cidade-do-rio/"
      }
    },
    {
      "type": "Feature",
      "geometry": {
        "type": "Point",
        "coordinates": [
          -43.2093727,
          -22.9110137
        ]
      },
      "properties": {
        "id": "cor-rio-2026-07-29-006",
        "fonte": "COR-Rio",
        "tipo": "vento_forte",
        "severidade": "baixa",
        "municipio": "Rio de Janeiro",
        "estado": "RJ",
        "data_ocorrencia": "2026-07-29T18:37:07",
        "descricao": "Segundo o Alerta Rio, o final desta quarta-feira (29/07), no município do Rio, será de céu parcialmente nublado e não há previsão de chuva. Os ventos estarão moderados, com rajadas fortes. Recomendações em caso de vento forte: Não fique embaixo de árvores e coberturas metálicas; Evite esportes ao ar livre; Não passe sob cabos elétricos, [&hellip;]",
        "url": "https://cor.rio/previsao-quarta-feira-29-07-2026/"
      }
    },
    {
      "type": "Feature",
      "geometry": {
        "type": "Point",
        "coordinates": [
          -43.2093727,
          -22.9110137
        ]
      },
      "properties": {
        "id": "cor-rio-2026-07-29-007",
        "fonte": "COR-Rio",
        "tipo": "vento_forte",
        "severidade": "baixa",
        "municipio": "Rio de Janeiro",
        "estado": "RJ",
        "data_ocorrencia": "2026-07-29T16:56:24",
        "descricao": "(Última atualização &#8211; 30/07/2026 &#8211; 18h48) O Centro de Operações e Resiliência da Prefeitura do Rio (COR-Rio) informa que o município permanece em Estágio 2 nesta quinta-feira (30/07) por conta de ocorrências que ainda estão em andamento pela cidade, provocadas pelos fortes ventos que atingiram o município durante a tarde de quarta-feira (29). Com pronta [&hellip;]",
        "url": "https://cor.rio/municipio-do-rio-entrou-no-estagio-2-as-16h50-desta-quarta-feira-29-07-2026/"
      }
    },
    {
      "type": "Feature",
      "geometry": {
        "type": "Point",
        "coordinates": [
          -43.2093727,
          -22.9110137
        ]
      },
      "properties": {
        "id": "cor-rio-2026-07-29-008",
        "fonte": "COR-Rio",
        "tipo": "outro",
        "severidade": "baixa",
        "municipio": "Rio de Janeiro",
        "estado": "RJ",
        "data_ocorrencia": "2026-07-29T05:10:37",
        "descricao": "Segundo o Alerta Rio, nesta quarta-feira (29/7),  as condições do tempo seguem sem mudanças significativas na cidade do Rio de Janeiro devido à permanência da atuação de um sistema de alta pressão no oceano. O céu irá variar entre claro e parcialmente nublado e não há previsão de chuva. Os ventos estarão moderados com rajadas [&hellip;]",
        "url": "https://cor.rio/quarta-feira-29-7-sera-de-ceu-claro-a-parcialmente-nublado-e-sem-previsao-de-chuva-na-cidade-do-rio/"
      }
    },
    {
      "type": "Feature",
      "geometry": {
        "type": "Point",
        "coordinates": [
          -43.2093727,
          -22.9110137
        ]
      },
      "properties": {
        "id": "cor-rio-2026-07-27-009",
        "fonte": "COR-Rio",
        "tipo": "outro",
        "severidade": "baixa",
        "municipio": "Rio de Janeiro",
        "estado": "RJ",
        "data_ocorrencia": "2026-07-27T17:04:36",
        "descricao": "Segundo o Alerta Rio, neste final de tarde e noite de segunda-feira (27/7) o tempo seguirá estável na cidade do Rio. Assim, a previsão é de céu claro a parcialmente nublado, ventos fracos a moderados e sem ocorrência de chuva. Ao longo do dia não houve registro de chuva e as temperaturas ficaram estáveis, com [&hellip;]",
        "url": "https://cor.rio/segunda-feira-27-7-tera-noite-sem-chuva-e-com-ventos-fracos-a-moderados-confira-os-proximos-dias/"
      }
    },
    {
      "type": "Feature",
      "geometry": {
        "type": "Point",
        "coordinates": [
          -43.2093727,
          -22.9110137
        ]
      },
      "properties": {
        "id": "cor-rio-2026-07-26-010",
        "fonte": "COR-Rio",
        "tipo": "outro",
        "severidade": "baixa",
        "municipio": "Rio de Janeiro",
        "estado": "RJ",
        "data_ocorrencia": "2026-07-26T05:10:02",
        "descricao": "Segundo o Alerta Rio, neste domingo (26/7), a entrada de ventos úmidos vindos do oceano influenciará o tempo na cidade do Rio. A previsão é de céu nublado a parcialmente nublado e chuvisco/chuva fraca isolada durante a manhã. Os ventos estarão fracos a moderados e as temperaturas permanecerão estáveis, com mínima prevista de 16°C e [&hellip;]",
        "url": "https://cor.rio/domingo-26-7-com-possibilidade-de-chuvisco-chuva-fraca-durante-a-manha-na-cidade-do-rio/"
      }
    },
    {
      "type": "Feature",
      "geometry": {
        "type": "Point",
        "coordinates": [
          -43.2093727,
          -22.9110137
        ]
      },
      "properties": {
        "id": "cor-rio-2026-07-25-011",
        "fonte": "COR-Rio",
        "tipo": "outro",
        "severidade": "baixa",
        "municipio": "Rio de Janeiro",
        "estado": "RJ",
        "data_ocorrencia": "2026-07-25T16:23:14",
        "descricao": "Segundo o Alerta Rio, o final de tarde e a noite deste sábado (25/07), no município do Rio, serão de céu nublado e há previsão de chuvisco/chuva fraca, isolada. Os ventos estarão fracos a moderados. Neste sábado, o tempo na cidade do Rio foi influenciado por áreas de instabilidade associadas a um sistema de baixa [&hellip;]",
        "url": "https://cor.rio/previsao-sabado-25-07-2026/"
      }
    },
    {
      "type": "Feature",
      "geometry": {
        "type": "Point",
        "coordinates": [
          -43.2093727,
          -22.9110137
        ]
      },
      "properties": {
        "id": "cor-rio-2026-07-25-012",
        "fonte": "COR-Rio",
        "tipo": "outro",
        "severidade": "baixa",
        "municipio": "Rio de Janeiro",
        "estado": "RJ",
        "data_ocorrencia": "2026-07-25T05:20:14",
        "descricao": "Segundo o Alerta Rio, neste sábado (25/7), áreas de instabilidade associadas ao deslocamento de um sistema de baixa pressão na costa da região Sudeste influenciarão o tempo na cidade do Rio. Há previsão de predomínio de céu nublado e chuva fraca isolada a qualquer momento. Os ventos estarão fracos a moderados e as temperaturas estáveis, [&hellip;]",
        "url": "https://cor.rio/sabado-25-7-sera-de-ceu-nublado-e-com-previsao-de-chuva-fraca-isolada-a-qualquer-momento-na-cidade-do-rio/"
      }
    },
    {
      "type": "Feature",
      "geometry": {
        "type": "Point",
        "coordinates": [
          -43.2093727,
          -22.9110137
        ]
      },
      "properties": {
        "id": "cor-rio-2026-07-24-013",
        "fonte": "COR-Rio",
        "tipo": "chuva_intensa",
        "severidade": "baixa",
        "municipio": "Rio de Janeiro",
        "estado": "RJ",
        "data_ocorrencia": "2026-07-24T17:00:42",
        "descricao": "Segundo o Sistema Alerta Rio, o tempo permanecerá instável na cidade do Rio de Janeiro neste fim de tarde e noite de sexta-feira (24/07). A previsão é de céu nublado a encoberto, ventos fracos a moderados e chuva fraca a moderada isolada, com possibilidade de pancadas rápidas e isoladas. Ao longo do dia, a passagem [&hellip;]",
        "url": "https://cor.rio/noite-de-sexta-feira-24-07-2026/"
      }
    },
    {
      "type": "Feature",
      "geometry": {
        "type": "Point",
        "coordinates": [
          -43.2093727,
          -22.9110137
        ]
      },
      "properties": {
        "id": "cor-rio-2026-07-24-014",
        "fonte": "COR-Rio",
        "tipo": "chuva_intensa",
        "severidade": "baixa",
        "municipio": "Rio de Janeiro",
        "estado": "RJ",
        "data_ocorrencia": "2026-07-24T05:24:09",
        "descricao": "De acordo com o Sistema Alerta Rio, nesta sexta-feira (24/07), a atuação de uma frente fria, associada à formação de um sistema de baixa pressão, manterá o tempo instável na cidade do Rio. O céu permanecerá nublado a encoberto. No período da manhã, a chuva poderá ocorrer com intensidade fraca a moderada e, entre a [&hellip;]",
        "url": "https://cor.rio/sexta-feira-24-7-com-possibilidade-de-chuva-e-queda-de-temperatura-na-cidade-do-rio/"
      }
    },
    {
      "type": "Feature",
      "geometry": {
        "type": "Point",
        "coordinates": [
          -43.2093727,
          -22.9110137
        ]
      },
      "properties": {
        "id": "cor-rio-2026-07-23-015",
        "fonte": "COR-Rio",
        "tipo": "outro",
        "severidade": "baixa",
        "municipio": "Rio de Janeiro",
        "estado": "RJ",
        "data_ocorrencia": "2026-07-23T17:05:03",
        "descricao": "Segundo o Sistema Alerta Rio, neste final de tarde e noite de quinta-feira (23/07), o deslocamento de uma frente fria influencia o tempo na cidade do Rio de Janeiro. Assim, a previsão é de céu nublado, ventos moderados e chuva fraca isolada a partir da noite. Ao longo do dia, houve aumento gradual da nebulosidade [&hellip;]",
        "url": "https://cor.rio/noite-de-quinta-feira-23-07-2026/"
      }
    },
    {
      "type": "Feature",
      "geometry": {
        "type": "Point",
        "coordinates": [
          -43.2093727,
          -22.9110137
        ]
      },
      "properties": {
        "id": "cor-rio-2026-07-23-016",
        "fonte": "COR-Rio",
        "tipo": "chuva_intensa",
        "severidade": "baixa",
        "municipio": "Rio de Janeiro",
        "estado": "RJ",
        "data_ocorrencia": "2026-07-23T05:16:32",
        "descricao": "De acordo com o Sistema Alerta Rio, nesta quinta-feira (23/7), a chegada de uma frente fria no final do dia irá influenciar o tempo na cidade do Rio de Janeiro. Há previsão de céu parcialmente nublado passando a nublado e chuva fraca isolada a partir do final da noite. Os ventos estarão ocasionalmente moderados e [&hellip;]",
        "url": "https://cor.rio/frente-fria-se-aproxima-do-rio-nesta-quinta-feira-23-7-e-ha-previsao-de-chuva-para-a-capital-fluminense/"
      }
    },
    {
      "type": "Feature",
      "geometry": {
        "type": "Point",
        "coordinates": [
          -43.2093727,
          -22.9110137
        ]
      },
      "properties": {
        "id": "cor-rio-2025-11-08-017",
        "fonte": "COR-Rio",
        "tipo": "chuva_intensa",
        "severidade": "baixa",
        "municipio": "Rio de Janeiro",
        "estado": "RJ",
        "data_ocorrencia": "2025-11-08T00:00:00",
        "descricao": "O Centro de Operações e Resiliência da Prefeitura do Rio (COR-Rio) informa que o município do Rio de Janeiro entrou no ESTÁGIO 2 às 6h55 deste sábado, dia 08 de novembro de 2025, devido a registros de chuva e vento forte. Previsão para a noite deste sábado: De acordo com o Sistema Alerta Rio, o [&hellip;]",
        "url": "https://cor.rio/municipio-do-rio-entrou-em-estagio-2-neste-sabado-08-11-2025-veja-as-principais-ocorrencias-em-tempo-real/"
      }
    },
    {
      "type": "Feature",
      "geometry": {
        "type": "Point",
        "coordinates": [
          -43.5196984,
          -22.9459867
        ]
      },
      "properties": {
        "id": "cor-rio-2025-04-11-018",
        "fonte": "COR-Rio",
        "tipo": "chuva_intensa",
        "severidade": "baixa",
        "municipio": "Rio de Janeiro",
        "estado": "RJ",
        "data_ocorrencia": "2025-04-11T16:31:05",
        "descricao": "O Centro de Operações e Resiliência da Prefeitura do Rio (COR-Rio) informa que houve registro de chuva moderada em vários pontos da cidade na quinta-feira (10/04). Segundo o Sistema Alerta Rio, a Zona Oeste foi a região onde mais choveu nesta quinta-feira (10/04). Os maiores acumulados de chuva foram registrados nas estações pluviométricas do Recreio [&hellip;]",
        "url": "https://cor.rio/acompanhe-as-ocorrencias-relacionadas-a-chuva-nesta-quinta-feira-10-04-na-cidade-do-rio-de-janeiro/"
      }
    },
    {
      "type": "Feature",
      "geometry": {
        "type": "Point",
        "coordinates": [
          -43.1842997,
          -22.971974
        ]
      },
      "properties": {
        "id": "cor-rio-2026-05-03-019",
        "fonte": "COR-Rio",
        "tipo": "outro",
        "severidade": "baixa",
        "municipio": "Rio de Janeiro",
        "estado": "RJ",
        "data_ocorrencia": "2026-05-03T00:00:00",
        "descricao": "O Centro de Operações e Resiliência da Prefeitura do Rio (COR-Rio) informa que o município do Rio de Janeiro retornou ao ESTÁGIO 1 às 21h deste domingo, 03 de maio de 2026, após o término da operação especial para o evento Todo Mundo no Rio. SITUAÇÃO ATUAL: Vias de Copacabana, Lagoa Rodrigo de Freitas, Botafogo [&hellip;]",
        "url": "https://cor.rio/municipio-do-rio-de-janeiro-retornou-ao-estagio-1-as-21h-deste-domingo-03-de-maio-de-2026/"
      }
    },
    {
      "type": "Feature",
      "geometry": {
        "type": "Point",
        "coordinates": [
          -43.1842997,
          -22.971974
        ]
      },
      "properties": {
        "id": "cor-rio-2026-05-02-020",
        "fonte": "COR-Rio",
        "tipo": "outro",
        "severidade": "baixa",
        "municipio": "Rio de Janeiro",
        "estado": "RJ",
        "data_ocorrencia": "2026-05-02T00:00:00",
        "descricao": "O Centro de Operações e Resiliência da Prefeitura do Rio (COR-Rio) informa que o município do Rio de Janeiro entrou em ESTÁGIO 2 à 0h deste sábado, dia 2 de maio de 2026, devido às operações para o evento Todo Mundo no Rio, em Copacabana, Zona Sul do Rio.   Situação atual A Avenida Atlântica [&hellip;]",
        "url": "https://cor.rio/municipio-do-rio-entrou-em-estagio-2-a-0h-deste-sabado-02-05-2026/"
      }
    },
    {
      "type": "Feature",
      "geometry": {
        "type": "Point",
        "coordinates": [
          -42.5325303,
          -22.2800004
        ]
      },
      "properties": {
        "id": "cor-rio-2026-03-27-021",
        "fonte": "COR-Rio",
        "tipo": "outro",
        "severidade": "alta",
        "municipio": "Rio de Janeiro",
        "estado": "RJ",
        "data_ocorrencia": "2026-03-27T00:00:00",
        "descricao": "O Centro de Operações e Resiliência da Prefeitura do Rio (COR-Rio) informa que a cidade retornou ao CALOR 1 às 09h00 desta sexta-feira, 27 de março de 2026, em função da ausência de previsão de Índices de Calor – IC (temperatura e umidade) extremo, muito alto ou alto nas próximas horas. Na quinta-feira (26/3), às [&hellip;]",
        "url": "https://cor.rio/municipio-do-rio-retornou-ao-primeiro-nivel-do-protocolo-de-calor-calor-1-as-09h00-desta-sexta-feira-27-03-2026/"
      }
    },
    {
      "type": "Feature",
      "geometry": {
        "type": "Point",
        "coordinates": [
          -43.2093727,
          -22.9110137
        ]
      },
      "properties": {
        "id": "cor-rio-2026-02-22-022",
        "fonte": "COR-Rio",
        "tipo": "outro",
        "severidade": "baixa",
        "municipio": "Rio de Janeiro",
        "estado": "RJ",
        "data_ocorrencia": "2026-02-22T05:55:14",
        "descricao": "De acordo com o Sistema Alerta Rio, o tempo na capital fluminense, neste domingo (22/02), será influenciado pela entrada de umidade do oceano em direção ao continente, em conjunto com áreas de instabilidade. O céu estará nublado a encoberto e há previsão de chuva fraca a moderada a qualquer momento, sendo em caráter de pancada [&hellip;]",
        "url": "https://cor.rio/domingo-22-02-sera-de-tempo-instavel-na-capital-fluminense-com-previsao-de-chuva-a-qualquer-hora/"
      }
    },
    {
      "type": "Feature",
      "geometry": {
        "type": "Point",
        "coordinates": [
          -43.2093727,
          -22.9110137
        ]
      },
      "properties": {
        "id": "cor-rio-2026-02-20-023",
        "fonte": "COR-Rio",
        "tipo": "chuva_intensa",
        "severidade": "baixa",
        "municipio": "Rio de Janeiro",
        "estado": "RJ",
        "data_ocorrencia": "2026-02-20T00:00:00",
        "descricao": "O Centro de Operações e Resiliência da Prefeitura do Rio (COR-Rio) informa que o município do Rio de Janeiro entrou no ESTÁGIO 2 às 18h25 desta sexta-feira, dia 20 de fevereiro de 2026, devido à previsão de pancadas de chuva moderada/forte, podendo vir com raios. Situação atual: Segundo o Sistema Alerta Rio, núcleos de chuva [&hellip;]",
        "url": "https://cor.rio/municipio-do-rio-entrou-no-estagio-2-as-18h25-desta-sexta-feira-20-02-2026/"
      }
    },
    {
      "type": "Feature",
      "geometry": {
        "type": "Point",
        "coordinates": [
          -43.2093727,
          -22.9110137
        ]
      },
      "properties": {
        "id": "cor-rio-2026-02-12-024",
        "fonte": "COR-Rio",
        "tipo": "chuva_intensa",
        "severidade": "baixa",
        "municipio": "Rio de Janeiro",
        "estado": "RJ",
        "data_ocorrencia": "2026-02-12T00:00:00",
        "descricao": "O Centro de Operações e Resiliência da Prefeitura do Rio (COR-Rio) informa que o município do Rio de Janeiro retornou ao ESTÁGIO 1 às 21h30 desta quarta-feira, dia 12 de fevereiro de 2026, devido à ausência de previsão de chuva moderada para as próximas horas. &nbsp; Situação atual: No momento, o Radar Meteorológico do Sumaré [&hellip;]",
        "url": "https://cor.rio/municipio-do-rio-de-janeiro-retornou-ao-estagio-1-as-21h30-desta-quinta-feira-dia-12-de-fevereiro-de-2026/"
      }
    },
    {
      "type": "Feature",
      "geometry": {
        "type": "Point",
        "coordinates": [
          -43.2093727,
          -22.9110137
        ]
      },
      "properties": {
        "id": "cor-rio-2026-02-10-025",
        "fonte": "COR-Rio",
        "tipo": "chuva_intensa",
        "severidade": "baixa",
        "municipio": "Rio de Janeiro",
        "estado": "RJ",
        "data_ocorrencia": "2026-02-10T00:00:00",
        "descricao": "O Centro de Operações e Resiliência da Prefeitura do Rio (COR-Rio) informa que o município do Rio de Janeiro retornou ao ESTÁGIO 2 à 0h10 desta terça-feira, dia 10 de fevereiro de 2026, devido à redução dos acumulados de chuva e sem previsão de intensificação. Situação atual: Segundo o Alerta Rio, o Radar Meteorológico do [&hellip;]",
        "url": "https://cor.rio/municipio-do-rio-de-janeiro-retornou-ao-estagio-2-a-0h10-desta-terca-feira-dia-10-de-fevereiro-de-2026/"
      }
    },
    {
      "type": "Feature",
      "geometry": {
        "type": "Point",
        "coordinates": [
          -43.3134617,
          -22.8246633
        ]
      },
      "properties": {
        "id": "cor-rio-2026-02-07-026",
        "fonte": "COR-Rio",
        "tipo": "chuva_intensa",
        "severidade": "baixa",
        "municipio": "Rio de Janeiro",
        "estado": "RJ",
        "data_ocorrencia": "2026-02-07T00:00:00",
        "descricao": "O Centro de Operações da Prefeitura do Rio informa que o município do Rio de Janeiro entrou no ESTÁGIO 2 às 16h00 deste sábado, dia 7 de fevereiro de 2026, devido ao registro de chuva forte em pelo menos duas estações meteorológicas do Sistema Alerta Rio. Núcleos de chuva chegam à Zona Norte do Rio [&hellip;]",
        "url": "https://cor.rio/municipio-do-rio-de-janeiro-entrou-no-estagio-2-as-16h-deste-sabado-dia-7-de-fevereiro-de-2026/"
      }
    },
    {
      "type": "Feature",
      "geometry": {
        "type": "Point",
        "coordinates": [
          -43.2093727,
          -22.9110137
        ]
      },
      "properties": {
        "id": "cor-rio-2026-02-04-027",
        "fonte": "COR-Rio",
        "tipo": "chuva_intensa",
        "severidade": "baixa",
        "municipio": "Rio de Janeiro",
        "estado": "RJ",
        "data_ocorrencia": "2026-02-04T00:00:00",
        "descricao": "O Centro de Operações e Resiliência da Prefeitura do Rio (COR-Rio) informa que o município do Rio de Janeiro retornou ao ESTÁGIO 1 às 3h desta quarta-feira, dia 04 de fevereiro de 2026, devido à ausência de previsão de chuva moderada para as próximas horas. Situação atual: No momento, o Radar Meteorológico do Sumaré não [&hellip;]",
        "url": "https://cor.rio/municipio-do-rio-de-janeiro-retornou-ao-estagio-1-as-3h-desta-quarta-feira-04-02-2026/"
      }
    },
    {
      "type": "Feature",
      "geometry": {
        "type": "Point",
        "coordinates": [
          -43.2093727,
          -22.9110137
        ]
      },
      "properties": {
        "id": "cor-rio-2026-02-03-028",
        "fonte": "COR-Rio",
        "tipo": "chuva_intensa",
        "severidade": "baixa",
        "municipio": "Rio de Janeiro",
        "estado": "RJ",
        "data_ocorrencia": "2026-02-03T00:00:00",
        "descricao": "***Atualizado às 20h10 O Centro de Operações e Resiliência da Prefeitura do Rio (COR-Rio) informa que o município do Rio de Janeiro entrou no ESTÁGIO 2 às 15h10 desta terça-feira, dia 3 de fevereiro de 2026, devido a um registro de chuva maior que 25mm/30min em pelo menos uma estação do Alerta Rio. Situação atual: [&hellip;]",
        "url": "https://cor.rio/municipio-do-rio-entrou-no-estagio-2-as-15h10-desta-terca-feira-03-02-2026/"
      }
    },
    {
      "type": "Feature",
      "geometry": {
        "type": "Point",
        "coordinates": [
          -43.2093727,
          -22.9110137
        ]
      },
      "properties": {
        "id": "cor-rio-2026-02-01-029",
        "fonte": "COR-Rio",
        "tipo": "chuva_intensa",
        "severidade": "baixa",
        "municipio": "Rio de Janeiro",
        "estado": "RJ",
        "data_ocorrencia": "2026-02-01T00:00:00",
        "descricao": "O Centro de Operações e Resiliência da Prefeitura do Rio (COR-Rio) informa que o município do Rio de Janeiro entrou no ESTÁGIO 2 às 20h21 deste domingo, dia 01 de fevereiro de 2026, devido a registros de chuva e vento forte. &nbsp; Situação Atual: &nbsp; De acordo com o Sistema Alerta Rio, núcleos de chuva [&hellip;]",
        "url": "https://cor.rio/municipio-do-rio-de-janeiro-entrou-em-estagio-2-as-20h21-deste-domingo-01-de-fevereiro-de-2026/"
      }
    },
    {
      "type": "Feature",
      "geometry": {
        "type": "Point",
        "coordinates": [
          -43.2093727,
          -22.9110137
        ]
      },
      "properties": {
        "id": "cor-rio-2026-01-27-030",
        "fonte": "COR-Rio",
        "tipo": "chuva_intensa",
        "severidade": "baixa",
        "municipio": "Rio de Janeiro",
        "estado": "RJ",
        "data_ocorrencia": "2026-01-27T00:00:00",
        "descricao": "O Centro de Operações e Resiliência da Prefeitura do Rio (COR-Rio) informa que o município do Rio de Janeiro retornou ao ESTÁGIO 1 às 4h desta terça-feira, dia 27 de janeiro de 2026, devido à ausência de previsão de chuva moderada para as próximas horas. Situação atual: No momento, o Radar Meteorológico do Sumaré não [&hellip;]",
        "url": "https://cor.rio/municipio-do-rio-de-janeiro-retornou-ao-eestagio-1-as-4h-desta-terca-feira-27-01-2026/"
      }
    },
    {
      "type": "Feature",
      "geometry": {
        "type": "Point",
        "coordinates": [
          -43.2093727,
          -22.9110137
        ]
      },
      "properties": {
        "id": "cor-rio-2026-01-16-031",
        "fonte": "COR-Rio",
        "tipo": "outro",
        "severidade": "baixa",
        "municipio": "Rio de Janeiro",
        "estado": "RJ",
        "data_ocorrencia": "2026-01-16T00:00:00",
        "descricao": "A cidade do Rio de Janeiro atingiu o terceiro nível do Protocolo de Calor (CALOR 3) às 11h30 de sábado, 10 de janeiro de 2026. O Calor 3 caracteriza-se quando há registro de índices de calor alto (36ºC a 40ºC) com previsão de permanência ou aumento por, ao menos, três dias consecutivos. Segundo o Sistema [&hellip;]",
        "url": "https://cor.rio/municipio-do-rio-de-janeiro-entrou-em-calor-3-as-11h30-deste-sabado-10-de-janeiro-de-2026/"
      }
    },
    {
      "type": "Feature",
      "geometry": {
        "type": "Point",
        "coordinates": [
          -43.2093727,
          -22.9110137
        ]
      },
      "properties": {
        "id": "cor-rio-2026-01-05-032",
        "fonte": "COR-Rio",
        "tipo": "chuva_intensa",
        "severidade": "baixa",
        "municipio": "Rio de Janeiro",
        "estado": "RJ",
        "data_ocorrencia": "2026-01-05T00:00:00",
        "descricao": "O Centro de Operações e Resiliência da Prefeitura do Rio (COR-Rio) informa que o município do Rio de Janeiro retornou ao ESTÁGIO 1 às 20h15 desta segunda-feira, dia 05 de janeiro de 2026, devido à ausência de previsão de chuva moderada para as próximas horas. Situação atual: O Sistema Alerta Rio informa o Radar Meteorológico [&hellip;]",
        "url": "https://cor.rio/municipio-do-rio-de-janeiro-retornou-ao-estagio-1-as-20h15-desta-segunda-feira-05-de-janeiro-de-2026/"
      }
    },
    {
      "type": "Feature",
      "geometry": {
        "type": "Point",
        "coordinates": [
          -43.2327165,
          -22.9247351
        ]
      },
      "properties": {
        "id": "cor-rio-2026-01-04-033",
        "fonte": "COR-Rio",
        "tipo": "chuva_intensa",
        "severidade": "baixa",
        "municipio": "Rio de Janeiro",
        "estado": "RJ",
        "data_ocorrencia": "2026-01-04T00:00:00",
        "descricao": "O Centro de Operações e Resiliência da Prefeitura do Rio (COR-Rio) informa que o município do Rio de Janeiro entrou no ESTÁGIO 2 às 08h07 deste domingo, dia 04 de janeiro de 2026, devido a registros de chuva e vento forte na região do maciço da Tijuca. Matéria atualizada às 14h30* Situação Atual: De acordo [&hellip;]",
        "url": "https://cor.rio/municipio-do-rio-de-janeiro-entrou-em-estagio-2-as-08h07-deste-domingo-04-de-janeiro-de-2026/"
      }
    },
    {
      "type": "Feature",
      "geometry": {
        "type": "Point",
        "coordinates": [
          -43.2093727,
          -22.9110137
        ]
      },
      "properties": {
        "id": "cor-rio-2025-12-18-034",
        "fonte": "COR-Rio",
        "tipo": "outro",
        "severidade": "baixa",
        "municipio": "Rio de Janeiro",
        "estado": "RJ",
        "data_ocorrencia": "2025-12-18T00:00:00",
        "descricao": "O Centro de Operações da Prefeitura do Rio informa que o município do Rio de Janeiro retornou ao ESTÁGIO 1 às 05h22 desta quinta-feira, 18 de dezembro de 2025, devido à ausência de previsão de chuva moderada para as próximas horas. &nbsp; O Estágio 1 é o primeiro em uma escala de cinco e significa [&hellip;]",
        "url": "https://cor.rio/municipio-do-rio-de-janeiro-retornou-ao-estagio-1-as-05h22-desta-sexta-feira-18-de-dezembro-de-2025/"
      }
    },
    {
      "type": "Feature",
      "geometry": {
        "type": "Point",
        "coordinates": [
          -43.2093727,
          -22.9110137
        ]
      },
      "properties": {
        "id": "cor-rio-2025-02-17-035",
        "fonte": "COR-Rio",
        "tipo": "chuva_intensa",
        "severidade": "baixa",
        "municipio": "Rio de Janeiro",
        "estado": "RJ",
        "data_ocorrencia": "2025-02-17T00:00:00",
        "descricao": "O Centro de Operações e Resiliência da Prefeitura do Rio (COR-Rio) informa que o município do Rio de Janeiro entrou no ESTÁGIO 2 às 6h45 desta quarta-feira, dia 17 de dezembro de 2025, devido a registros de chuva e vento forte. Situação Atual: De acordo com o Sistema Alerta Rio, entre 00h30 e 00h45, houve [&hellip;]",
        "url": "https://cor.rio/municipio-do-rio-entrou-em-estagio-2-as-desta-quarta-feira-17-12-2025/"
      }
    },
    {
      "type": "Feature",
      "geometry": {
        "type": "Point",
        "coordinates": [
          -43.2093727,
          -22.9110137
        ]
      },
      "properties": {
        "id": "cor-rio-2025-11-29-036",
        "fonte": "COR-Rio",
        "tipo": "chuva_intensa",
        "severidade": "baixa",
        "municipio": "Rio de Janeiro",
        "estado": "RJ",
        "data_ocorrencia": "2025-11-29T00:00:00",
        "descricao": "O Centro de Operações da Prefeitura do Rio informa que o município do Rio de Janeiro retornou ao ESTÁGIO 1 às 01h15 deste sábado, 29 de novembro de 2025, devido à ausência de previsão de chuva moderada para as próximas horas. &nbsp; O Estágio 1 é o primeiro em uma escala de cinco e significa [&hellip;]",
        "url": "https://cor.rio/municipio-do-rio-de-janeiro-retornou-ao-estagio-1-as-01h15-deste-sabado-29-de-novembro-de-2025/"
      }
    },
    {
      "type": "Feature",
      "geometry": {
        "type": "Point",
        "coordinates": [
          -43.2093727,
          -22.9110137
        ]
      },
      "properties": {
        "id": "cor-rio-2025-11-28-037",
        "fonte": "COR-Rio",
        "tipo": "chuva_intensa",
        "severidade": "baixa",
        "municipio": "Rio de Janeiro",
        "estado": "RJ",
        "data_ocorrencia": "2025-11-28T00:00:00",
        "descricao": "*Atualizado às 00h40 O Centro de Operações e Resiliência da Prefeitura do Rio (COR-Rio) informa que o município do Rio de Janeiro entrou no ESTÁGIO 2 às 20h32 desta sexta-feira, dia 28 de novembro de 2025, devido a registros de chuva forte em pelo menos duas estações. Situação atual: De acordo com o Sistema Alerta [&hellip;]",
        "url": "https://cor.rio/municipio-do-rio-de-janeiro-entrou-em-estagio-2-as-20h32-desta-sexta-feira-28-11-2025/"
      }
    },
    {
      "type": "Feature",
      "geometry": {
        "type": "Point",
        "coordinates": [
          -43.2093727,
          -22.9110137
        ]
      },
      "properties": {
        "id": "cor-rio-2025-11-09-038",
        "fonte": "COR-Rio",
        "tipo": "chuva_intensa",
        "severidade": "baixa",
        "municipio": "Rio de Janeiro",
        "estado": "RJ",
        "data_ocorrencia": "2025-11-09T00:00:00",
        "descricao": "O Centro de Operações da Prefeitura do Rio informa que o município do Rio de Janeiro retornou ao ESTÁGIO 1 às 15h deste domingo, 09 de novembro de 2025, devido à ausência de previsão de chuva moderada para as próximas horas. O Estágio 1 é o primeiro em uma escala de cinco e significa que [&hellip;]",
        "url": "https://cor.rio/municipio-do-rio-de-janeiro-retornou-ao-estagio-1-as-15h00-deste-domingo-09-de-novembro-de-2025/"
      }
    },
    {
      "type": "Feature",
      "geometry": {
        "type": "Point",
        "coordinates": [
          -43.2093727,
          -22.9110137
        ]
      },
      "properties": {
        "id": "cor-rio-2025-10-29-039",
        "fonte": "COR-Rio",
        "tipo": "outro",
        "severidade": "baixa",
        "municipio": "Rio de Janeiro",
        "estado": "RJ",
        "data_ocorrencia": "2025-10-29T00:00:00",
        "descricao": "O Centro de Operações da Prefeitura do Rio informa que o município do Rio de Janeiro retornou ao ESTÁGIO 1 às 6h desta quarta-feira, dia 29 de outubro de 2025. O Estágio 1 é o primeiro em uma escala de cinco e significa que não há ocorrências de grande impacto. Neste estágio, podem ocorrer pequenos [&hellip;]",
        "url": "https://cor.rio/municipio-do-rio-retornou-ao-estagio-1-as-6h-desta-quarta-feira-29-10-2025/"
      }
    },
    {
      "type": "Feature",
      "geometry": {
        "type": "Point",
        "coordinates": [
          -43.2093727,
          -22.9110137
        ]
      },
      "properties": {
        "id": "cor-rio-2025-07-08-040",
        "fonte": "COR-Rio",
        "tipo": "outro",
        "severidade": "baixa",
        "municipio": "Rio de Janeiro",
        "estado": "RJ",
        "data_ocorrencia": "2025-07-08T00:00:00",
        "descricao": "O Centro de Operações e Resiliência da Prefeitura do Rio (COR-Rio) informa que o município do Rio de Janeiro retornou ao ESTÁGIO 1 às 12h desta terça-feira, dia 08 de julho de 2025, em função do encerramento dos eventos realizados na cidade para a Cúpula de Líderes do Brics e de encontros paralelos, que alteraram [&hellip;]",
        "url": "https://cor.rio/municipio-do-rio-retornou-ao-estagio-1-as-12h-desta-terca-08-de-julho-de-2025-apos-a-cupula-do-brics-na-cidade/"
      }
    },
    {
      "type": "Feature",
      "geometry": {
        "type": "Point",
        "coordinates": [
          -43.2093727,
          -22.9110137
        ]
      },
      "properties": {
        "id": "cor-rio-2025-07-06-041",
        "fonte": "COR-Rio",
        "tipo": "outro",
        "severidade": "baixa",
        "municipio": "Rio de Janeiro",
        "estado": "RJ",
        "data_ocorrencia": "2025-07-06T00:00:00",
        "descricao": "O Centro de Operações e Resiliência da Prefeitura do Rio informa que o município do Rio de Janeiro permanece em ESTÁGIO 2 desde às 10h de domingo, dia 06 de julho de 2025, devido à reunião de Cúpula do Brics e eventos paralelos. A cidade recebe o grupo das maiores economias emergentes do mundo. Os [&hellip;]",
        "url": "https://cor.rio/municipio-do-rio-entrou-em-estagio-2-as-10h-deste-domingo-06-07-2025/"
      }
    },
    {
      "type": "Feature",
      "geometry": {
        "type": "Point",
        "coordinates": [
          -43.2093727,
          -22.9110137
        ]
      },
      "properties": {
        "id": "cor-rio-2025-06-10-042",
        "fonte": "COR-Rio",
        "tipo": "chuva_intensa",
        "severidade": "baixa",
        "municipio": "Rio de Janeiro",
        "estado": "RJ",
        "data_ocorrencia": "2025-06-10T00:00:00",
        "descricao": "O Centro de Operações e Resiliência da Prefeitura do Rio (COR-Rio) informa que o município do Rio de Janeiro retornou ao ESTÁGIO 1 às 15h10 desta terça-feira, dia 10 de junho de 2025, após a liberação total do trânsito na Avenida Brasil e na Linha Vermelha, além de ausência de previsão de chuva moderada nas [&hellip;]",
        "url": "https://cor.rio/municipio-do-rio-de-janeiro-retorna-ao-estagio-1-as-15h10-desta-terca-feira-10-de-junho-de-2025/"
      }
    },
    {
      "type": "Feature",
      "geometry": {
        "type": "Point",
        "coordinates": [
          -43.3097039,
          -22.8095333
        ]
      },
      "properties": {
        "id": "cor-rio-2025-06-10-043",
        "fonte": "COR-Rio",
        "tipo": "outro",
        "severidade": "baixa",
        "municipio": "Rio de Janeiro",
        "estado": "RJ",
        "data_ocorrencia": "2025-06-10T00:00:00",
        "descricao": "O Centro de Operações e Resiliência da Prefeitura do Rio (COR-Rio) informa que o município do Rio de Janeiro entrou no ESTÁGIO 2 às 06h50 desta terça-feira, dia 10 de Junho de 2025, em função de uma ocorrência policial que interditou a Avenida Brasil e a Linha Vermelha, nos dois sentidos, na altura de Vigário [&hellip;]",
        "url": "https://cor.rio/municipio-do-rio-entrou-em-estagio-2-desde-as-06h50-de-terca-feira-10-06-acompanhe-os-impactos-pela-cidade/"
      }
    },
    {
      "type": "Feature",
      "geometry": {
        "type": "Point",
        "coordinates": [
          -43.2093727,
          -22.9110137
        ]
      },
      "properties": {
        "id": "cor-rio-2025-04-20-044",
        "fonte": "COR-Rio",
        "tipo": "chuva_intensa",
        "severidade": "baixa",
        "municipio": "Rio de Janeiro",
        "estado": "RJ",
        "data_ocorrencia": "2025-04-20T00:00:00",
        "descricao": "O Centro de Operações e Resiliência da Prefeitura do Rio (COR-Rio) informa que o município do Rio de Janeiro retornou ao ESTÁGIO 1 às 14h25 deste domingo, dia 20 de abril de 2025, devido à ausência de previsão de chuva moderada para as próximas horas. Situação atual: No momento, núcleos de chuva atuam na Região [&hellip;]",
        "url": "https://cor.rio/municipio-do-rio-de-janeiro-retornou-ao-estagio-1-as-14h25-deste-domingo-20-de-abril-de-2025/"
      }
    },
    {
      "type": "Feature",
      "geometry": {
        "type": "Point",
        "coordinates": [
          -43.2093727,
          -22.9110137
        ]
      },
      "properties": {
        "id": "cor-rio-2025-04-07-045",
        "fonte": "COR-Rio",
        "tipo": "outro",
        "severidade": "baixa",
        "municipio": "Rio de Janeiro",
        "estado": "RJ",
        "data_ocorrencia": "2025-04-07T00:00:00",
        "descricao": "Município do Rio de Janeiro retornou ao Estágio 1 às 16h50 desta segunda-feira, 7 de abril de 2025 O Centro de Operações e Resiliência da Prefeitura do Rio (COR-Rio) informa que o município do Rio de Janeiro retornou ao ESTÁGIO 1 às 16h50 desta segunda-feira, dia 7 de abril de 2025, devido à ausência de [&hellip;]",
        "url": "https://cor.rio/municipio-do-rio-de-janeiro-retornou-ao-estagio-1-as-16h50-desta-segunda-feira-7-de-abril-de-2025/"
      }
    },
    {
      "type": "Feature",
      "geometry": {
        "type": "Point",
        "coordinates": [
          -43.2327165,
          -22.9247351
        ]
      },
      "properties": {
        "id": "cor-rio-2025-04-04-046",
        "fonte": "COR-Rio",
        "tipo": "chuva_intensa",
        "severidade": "baixa",
        "municipio": "Rio de Janeiro",
        "estado": "RJ",
        "data_ocorrencia": "2025-04-04T00:00:00",
        "descricao": "O Centro de Operações e Resiliência da Prefeitura do Rio (COR-Rio) informa que o município do Rio de Janeiro permanece no ESTÁGIO 2 desde às 06h05 de sexta-feira, dia 04 de abril de 2025, devido ao registro de chuva forte durante a madrugada/manhã. O Estágio 2 é o segundo nível em uma escala de cinco [&hellip;]",
        "url": "https://cor.rio/municipio-do-rio-de-janeiro-entrou-em-estagio-2-as-06h05-desta-sexta-feira-dia-04-04-2025/"
      }
    },
    {
      "type": "Feature",
      "geometry": {
        "type": "Point",
        "coordinates": [
          -43.1806914,
          -22.9107983
        ]
      },
      "properties": {
        "id": "inmet-2026-08-02-047",
        "fonte": "INMET",
        "tipo": "vento_forte",
        "severidade": "moderada",
        "municipio": "Metropolitana do Rio de Janeiro",
        "estado": "RJ",
        "data_ocorrencia": "2026-08-02T00:00:00",
        "descricao": "INMET publica aviso iniciando em: 02/08/2026 00:00. Intensificação dos ventos nas regiões litorâneas, movimentando dunas de areia sobre construções na orla.",
        "url": "https://apiprevmet3.inmet.gov.br/avisos/rss/55225"
      }
    },
    {
      "type": "Feature",
      "geometry": {
        "type": "Point",
        "coordinates": [
          -43.1806914,
          -22.9107983
        ]
      },
      "properties": {
        "id": "inmet-2026-08-01-048",
        "fonte": "INMET",
        "tipo": "vento_forte",
        "severidade": "moderada",
        "municipio": "Metropolitana do Rio de Janeiro",
        "estado": "RJ",
        "data_ocorrencia": "2026-08-01T00:00:00",
        "descricao": "INMET publica aviso iniciando em: 01/08/2026 00:00. Intensificação dos ventos nas regiões litorâneas, movimentando dunas de areia sobre construções na orla.",
        "url": "https://apiprevmet3.inmet.gov.br/avisos/rss/55222"
      }
    },
    {
      "type": "Feature",
      "geometry": {
        "type": "Point",
        "coordinates": [
          -43.2093727,
          -22.9110137
        ]
      },
      "properties": {
        "id": "inmet-2026-08-01-049",
        "fonte": "INMET",
        "tipo": "vento_forte",
        "severidade": "moderada",
        "municipio": "Rio de Janeiro",
        "estado": "RJ",
        "data_ocorrencia": "2026-08-01T08:00:00",
        "descricao": "INMET publica aviso iniciando em: 01/08/2026 08:00. Intensificação dos ventos nas regiões litorâneas, movimentando dunas de areia sobre construções na orla.",
        "url": "https://apiprevmet3.inmet.gov.br/avisos/rss/55221"
      }
    },
    {
      "type": "Feature",
      "geometry": {
        "type": "Point",
        "coordinates": [
          -43.2093727,
          -22.9110137
        ]
      },
      "properties": {
        "id": "inmet-2026-08-01-050",
        "fonte": "INMET",
        "tipo": "outro",
        "severidade": "moderada",
        "municipio": "Rio de Janeiro",
        "estado": "RJ",
        "data_ocorrencia": "2026-08-01T11:00:00",
        "descricao": "INMET publica aviso iniciando em: 01/08/2026 11:00. Umidade relativa do ar variando entre 30% e 20%. Baixo risco de incêndios florestais e à saúde.",
        "url": "https://apiprevmet3.inmet.gov.br/avisos/rss/55214"
      }
    },
    {
      "type": "Feature",
      "geometry": {
        "type": "Point",
        "coordinates": [
          -46.4871461,
          -23.5476525
        ]
      },
      "properties": {
        "id": "inmet-2026-08-02-051",
        "fonte": "INMET",
        "tipo": "outro",
        "severidade": "moderada",
        "municipio": "Metropolitana de São Paulo",
        "estado": "SP",
        "data_ocorrencia": "2026-08-02T10:30:00",
        "descricao": "INMET publica aviso iniciando em: 02/08/2026 10:30. Umidade relativa do ar variando entre 30% e 20%. Baixo risco de incêndios florestais e à saúde.",
        "url": "https://apiprevmet3.inmet.gov.br/avisos/rss/55202"
      }
    },
    {
      "type": "Feature",
      "geometry": {
        "type": "Point",
        "coordinates": [
          -43.2093727,
          -22.9110137
        ]
      },
      "properties": {
        "id": "inmet-2026-07-30-052",
        "fonte": "INMET",
        "tipo": "outro",
        "severidade": "moderada",
        "municipio": "Rio de Janeiro",
        "estado": "RJ",
        "data_ocorrencia": "2026-07-30T10:00:00",
        "descricao": "INMET publica aviso iniciando em: 30/07/2026 10:00. Umidade relativa do ar variando entre 30% e 20%. Baixo risco de incêndios florestais e à saúde.",
        "url": "https://apiprevmet3.inmet.gov.br/avisos/rss/55191"
      }
    },
    {
      "type": "Feature",
      "geometry": {
        "type": "Point",
        "coordinates": [
          -41.2897697,
          -21.7618006
        ]
      },
      "properties": {
        "id": "inmet-2026-07-29-053",
        "fonte": "INMET",
        "tipo": "vento_forte",
        "severidade": "moderada",
        "municipio": "Norte Fluminense",
        "estado": "RJ",
        "data_ocorrencia": "2026-07-29T17:25:00",
        "descricao": "INMET publica aviso iniciando em: 29/07/2026 17:25. Intensificação dos ventos nas regiões litorâneas, movimentando dunas de areia sobre construções na orla.",
        "url": "https://apiprevmet3.inmet.gov.br/avisos/rss/55189"
      }
    },
    {
      "type": "Feature",
      "geometry": {
        "type": "Point",
        "coordinates": [
          -43.2093727,
          -22.9110137
        ]
      },
      "properties": {
        "id": "inmet-2026-07-29-054",
        "fonte": "INMET",
        "tipo": "vento_forte",
        "severidade": "alta",
        "municipio": "Rio de Janeiro",
        "estado": "RJ",
        "data_ocorrencia": "2026-07-29T10:00:00",
        "descricao": "INMET publica aviso iniciando em: 29/07/2026 10:00. Intensificação dos ventos nas regiões litorâneas, movimentando dunas de areia sobre construções na orla.",
        "url": "https://apiprevmet3.inmet.gov.br/avisos/rss/55188"
      }
    },
    {
      "type": "Feature",
      "geometry": {
        "type": "Point",
        "coordinates": [
          -46.6333,
          -23.5505
        ]
      },
      "properties": {
        "id": "inmet-2026-07-29-055",
        "fonte": "INMET",
        "tipo": "chuva_intensa",
        "severidade": "moderada",
        "municipio": "Litoral Sul Paulista",
        "estado": "SP",
        "data_ocorrencia": "2026-07-29T00:00:00",
        "descricao": "INMET publica aviso iniciando em: 29/07/2026 00:00. Chuva entre 20 e 30 mm/h ou até 50 mm/dia, ventos intensos (40-60 km/h), e queda de granizo. Baixo risco de corte de energia elétrica, estragos em plantações, queda de galhos de árvores e de alagamentos.",
        "url": "https://apiprevmet3.inmet.gov.br/avisos/rss/55176"
      }
    },
    {
      "type": "Feature",
      "geometry": {
        "type": "Point",
        "coordinates": [
          -43.2093727,
          -22.9110137
        ]
      },
      "properties": {
        "id": "inmet-2026-07-29-056",
        "fonte": "INMET",
        "tipo": "vento_forte",
        "severidade": "alta",
        "municipio": "Rio de Janeiro",
        "estado": "RJ",
        "data_ocorrencia": "2026-07-29T00:00:00",
        "descricao": "INMET publica aviso iniciando em: 29/07/2026 00:00. Intensificação dos ventos nas regiões litorâneas, movimentando dunas de areia sobre construções na orla.",
        "url": "https://apiprevmet3.inmet.gov.br/avisos/rss/55175"
      }
    },
    {
      "type": "Feature",
      "geometry": {
        "type": "Point",
        "coordinates": [
          -46.6333,
          -23.5505
        ]
      },
      "properties": {
        "id": "inmet-2026-07-28-057",
        "fonte": "INMET",
        "tipo": "chuva_intensa",
        "severidade": "moderada",
        "municipio": "Litoral Sul Paulista",
        "estado": "SP",
        "data_ocorrencia": "2026-07-28T10:00:00",
        "descricao": "INMET publica aviso iniciando em: 28/07/2026 10:00. Chuva entre 20 e 30 mm/h ou até 50 mm/dia, ventos intensos (40-60 km/h), e queda de granizo. Baixo risco de corte de energia elétrica, estragos em plantações, queda de galhos de árvores e de alagamentos.",
        "url": "https://apiprevmet3.inmet.gov.br/avisos/rss/55171"
      }
    },
    {
      "type": "Feature",
      "geometry": {
        "type": "Point",
        "coordinates": [
          -46.6333,
          -23.5505
        ]
      },
      "properties": {
        "id": "inmet-2026-07-28-058",
        "fonte": "INMET",
        "tipo": "chuva_intensa",
        "severidade": "moderada",
        "municipio": "Litoral Sul Paulista",
        "estado": "SP",
        "data_ocorrencia": "2026-07-28T10:00:00",
        "descricao": "INMET publica aviso iniciando em: 28/07/2026 10:00. Chuva entre 20 e 30 mm/h ou até 50 mm/dia, ventos intensos (40-60 km/h), e queda de granizo. Baixo risco de corte de energia elétrica, estragos em plantações, queda de galhos de árvores e de alagamentos.",
        "url": "https://apiprevmet3.inmet.gov.br/avisos/rss/55170"
      }
    },
    {
      "type": "Feature",
      "geometry": {
        "type": "Point",
        "coordinates": [
          -43.2093727,
          -22.9110137
        ]
      },
      "properties": {
        "id": "inmet-2026-07-29-059",
        "fonte": "INMET",
        "tipo": "outro",
        "severidade": "moderada",
        "municipio": "Rio de Janeiro",
        "estado": "RJ",
        "data_ocorrencia": "2026-07-29T11:00:00",
        "descricao": "INMET publica aviso iniciando em: 29/07/2026 11:00. Umidade relativa do ar variando entre 30% e 20%. Baixo risco de incêndios florestais e à saúde.",
        "url": "https://apiprevmet3.inmet.gov.br/avisos/rss/55169"
      }
    },
    {
      "type": "Feature",
      "geometry": {
        "type": "Point",
        "coordinates": [
          -46.6333824,
          -23.5506507
        ]
      },
      "properties": {
        "id": "inmet-2026-07-28-060",
        "fonte": "INMET",
        "tipo": "outro",
        "severidade": "moderada",
        "municipio": "São Paulo",
        "estado": "SP",
        "data_ocorrencia": "2026-07-28T10:00:00",
        "descricao": "INMET publica aviso iniciando em: 28/07/2026 10:00. Umidade relativa do ar variando entre 30% e 20%. Baixo risco de incêndios florestais e à saúde.",
        "url": "https://apiprevmet3.inmet.gov.br/avisos/rss/55162"
      }
    },
    {
      "type": "Feature",
      "geometry": {
        "type": "Point",
        "coordinates": [
          -43.2093727,
          -22.9110137
        ]
      },
      "properties": {
        "id": "inmet-2026-07-25-061",
        "fonte": "INMET",
        "tipo": "chuva_intensa",
        "severidade": "moderada",
        "municipio": "Rio de Janeiro",
        "estado": "RJ",
        "data_ocorrencia": "2026-07-25T09:00:00",
        "descricao": "INMET publica aviso iniciando em: 25/07/2026 09:00. Chuva entre 20 e 30 mm/h ou até 50 mm/dia, ventos intensos (40-60 km/h), e queda de granizo. Baixo risco de corte de energia elétrica, estragos em plantações, queda de galhos de árvores e de alagamentos.",
        "url": "https://apiprevmet3.inmet.gov.br/avisos/rss/55127"
      }
    },
    {
      "type": "Feature",
      "geometry": {
        "type": "Point",
        "coordinates": [
          -43.2093727,
          -22.9110137
        ]
      },
      "properties": {
        "id": "inmet-2026-07-25-062",
        "fonte": "INMET",
        "tipo": "chuva_intensa",
        "severidade": "moderada",
        "municipio": "Rio de Janeiro",
        "estado": "RJ",
        "data_ocorrencia": "2026-07-25T09:00:00",
        "descricao": "INMET publica aviso iniciando em: 25/07/2026 09:00. Chuva entre 20 e 30 mm/h ou até 50 mm/dia, ventos intensos (40-60 km/h), e queda de granizo. Baixo risco de corte de energia elétrica, estragos em plantações, queda de galhos de árvores e de alagamentos.",
        "url": "https://apiprevmet3.inmet.gov.br/avisos/rss/55126"
      }
    },
    {
      "type": "Feature",
      "geometry": {
        "type": "Point",
        "coordinates": [
          -43.2093727,
          -22.9110137
        ]
      },
      "properties": {
        "id": "inmet-2026-07-24-063",
        "fonte": "INMET",
        "tipo": "chuva_intensa",
        "severidade": "moderada",
        "municipio": "Rio de Janeiro",
        "estado": "RJ",
        "data_ocorrencia": "2026-07-24T10:00:00",
        "descricao": "INMET publica aviso iniciando em: 24/07/2026 10:00. Chuva entre 20 e 30 mm/h ou até 50 mm/dia, ventos intensos (40-60 km/h), e queda de granizo. Baixo risco de corte de energia elétrica, estragos em plantações, queda de galhos de árvores e de alagamentos.",
        "url": "https://apiprevmet3.inmet.gov.br/avisos/rss/55123"
      }
    },
    {
      "type": "Feature",
      "geometry": {
        "type": "Point",
        "coordinates": [
          -46.6333,
          -23.5505
        ]
      },
      "properties": {
        "id": "inmet-2026-07-23-064",
        "fonte": "INMET",
        "tipo": "chuva_intensa",
        "severidade": "moderada",
        "municipio": "Macro Metropolitana Paulista",
        "estado": "SP",
        "data_ocorrencia": "2026-07-23T18:00:00",
        "descricao": "INMET publica aviso iniciando em: 23/07/2026 18:00. Chuva entre 20 e 30 mm/h ou até 50 mm/dia, ventos intensos (40-60 km/h), e queda de granizo. Baixo risco de corte de energia elétrica, estragos em plantações, queda de galhos de árvores e de alagamentos.",
        "url": "https://apiprevmet3.inmet.gov.br/avisos/rss/55121"
      }
    },
    {
      "type": "Feature",
      "geometry": {
        "type": "Point",
        "coordinates": [
          -46.6333,
          -23.5505
        ]
      },
      "properties": {
        "id": "inmet-2026-07-23-065",
        "fonte": "INMET",
        "tipo": "chuva_intensa",
        "severidade": "moderada",
        "municipio": "Macro Metropolitana Paulista",
        "estado": "SP",
        "data_ocorrencia": "2026-07-23T00:00:00",
        "descricao": "INMET publica aviso iniciando em: 23/07/2026 00:00. Chuva entre 20 e 30 mm/h ou até 50 mm/dia, ventos intensos (40-60 km/h), e queda de granizo. Baixo risco de corte de energia elétrica, estragos em plantações, queda de galhos de árvores e de alagamentos.",
        "url": "https://apiprevmet3.inmet.gov.br/avisos/rss/55112"
      }
    },
    {
      "type": "Feature",
      "geometry": {
        "type": "Point",
        "coordinates": [
          -46.6333,
          -23.5505
        ]
      },
      "properties": {
        "id": "inmet-2026-07-22-066",
        "fonte": "INMET",
        "tipo": "chuva_intensa",
        "severidade": "alta",
        "municipio": "Litoral Sul Paulista",
        "estado": "SP",
        "data_ocorrencia": "2026-07-22T09:15:00",
        "descricao": "INMET publica aviso iniciando em: 22/07/2026 09:15. Chuva entre 30 e 60 mm/h ou 50 e 100 mm/dia, ventos intensos (60-100 km/h), e queda de granizo. Risco de corte de energia elétrica, estragos em plantações,  queda de árvores e de alagamentos.",
        "url": "https://apiprevmet3.inmet.gov.br/avisos/rss/55102"
      }
    },
    {
      "type": "Feature",
      "geometry": {
        "type": "Point",
        "coordinates": [
          -43.2093727,
          -22.9110137
        ]
      },
      "properties": {
        "id": "inmet-2026-07-22-067",
        "fonte": "INMET",
        "tipo": "outro",
        "severidade": "moderada",
        "municipio": "Rio de Janeiro",
        "estado": "RJ",
        "data_ocorrencia": "2026-07-22T12:00:00",
        "descricao": "INMET publica aviso iniciando em: 22/07/2026 12:00. Umidade relativa do ar variando entre 30% e 20%. Baixo risco de incêndios florestais e à saúde.",
        "url": "https://apiprevmet3.inmet.gov.br/avisos/rss/55091"
      }
    },
    {
      "type": "Feature",
      "geometry": {
        "type": "Point",
        "coordinates": [
          -46.6333,
          -23.5505
        ]
      },
      "properties": {
        "id": "inmet-2026-07-22-068",
        "fonte": "INMET",
        "tipo": "chuva_intensa",
        "severidade": "moderada",
        "municipio": "Litoral Sul Paulista",
        "estado": "SP",
        "data_ocorrencia": "2026-07-22T00:00:00",
        "descricao": "INMET publica aviso iniciando em: 22/07/2026 00:00. Chuva entre 20 e 30 mm/h ou até 50 mm/dia, ventos intensos (40-60 km/h), e queda de granizo. Baixo risco de corte de energia elétrica, estragos em plantações, queda de galhos de árvores e de alagamentos.",
        "url": "https://apiprevmet3.inmet.gov.br/avisos/rss/55090"
      }
    },
    {
      "type": "Feature",
      "geometry": {
        "type": "Point",
        "coordinates": [
          -46.6333824,
          -23.5506507
        ]
      },
      "properties": {
        "id": "sp-sempre-alerta-2026-07-02-069",
        "fonte": "SP Sempre Alerta",
        "tipo": "chuva_intensa",
        "severidade": "baixa",
        "municipio": "São Paulo",
        "estado": "SP",
        "data_ocorrencia": "2026-07-02T13:57:44",
        "descricao": "Defesa Civil alerta para chuva, queda nas temperaturas e ventos com avanço de frente fria em São Paulo",
        "url": "https://www.spsemprealerta.sp.gov.br/defesa-civil-alerta/defesa-civil-alerta-para-chuva-queda-nas-temperaturas-e-ventos-com-avanco-de-frente-fria-em-sao-paulo/"
      }
    },
    {
      "type": "Feature",
      "geometry": {
        "type": "Point",
        "coordinates": [
          -46.6333824,
          -23.5506507
        ]
      },
      "properties": {
        "id": "sp-sempre-alerta-2026-06-15-070",
        "fonte": "SP Sempre Alerta",
        "tipo": "chuva_intensa",
        "severidade": "baixa",
        "municipio": "São Paulo",
        "estado": "SP",
        "data_ocorrencia": "2026-06-15T16:54:55",
        "descricao": "Defesa Civil do Estado prevê tempo estável e retorno das pancadas isoladas de chuva na sexta-feira (19)",
        "url": "https://www.spsemprealerta.sp.gov.br/defesa-civil-alerta/defesa-civil-do-estado-preve-tempo-estavel-e-retorno-das-pancadas-isoladas-de-chuva-na-sexta-feira/"
      }
    },
    {
      "type": "Feature",
      "geometry": {
        "type": "Point",
        "coordinates": [
          -46.6333824,
          -23.5506507
        ]
      },
      "properties": {
        "id": "sp-sempre-alerta-2026-05-25-071",
        "fonte": "SP Sempre Alerta",
        "tipo": "chuva_intensa",
        "severidade": "baixa",
        "municipio": "São Paulo",
        "estado": "SP",
        "data_ocorrencia": "2026-05-25T15:55:51",
        "descricao": "Defesa Civil do Estado indica tempo estável e possibilidade de chuva isolada em São Paulo até quarta-feira (27)",
        "url": "https://www.spsemprealerta.sp.gov.br/defesa-civil-alerta/defesa-civil-do-estado-indica-tempo-estavel-e-possibilidade-de-chuva-isolada-em-sao-paulo-ate-quarta-feira-27/"
      }
    },
    {
      "type": "Feature",
      "geometry": {
        "type": "Point",
        "coordinates": [
          -46.6333824,
          -23.5506507
        ]
      },
      "properties": {
        "id": "sp-sempre-alerta-2026-05-22-072",
        "fonte": "SP Sempre Alerta",
        "tipo": "chuva_intensa",
        "severidade": "moderada",
        "municipio": "São Paulo",
        "estado": "SP",
        "data_ocorrencia": "2026-05-22T14:16:33",
        "descricao": "Defesa Civil alerta para risco de chuva forte e ventos intensos em diversas regiões do Estado neste fim de semana",
        "url": "https://www.spsemprealerta.sp.gov.br/defesa-civil-alerta/defesa-civil-alerta-para-risco-de-chuva-forte-e-ventos-intensos-em-diversas-regioes-do-estado-neste-fim-de-semana/"
      }
    },
    {
      "type": "Feature",
      "geometry": {
        "type": "Point",
        "coordinates": [
          -46.6333824,
          -23.5506507
        ]
      },
      "properties": {
        "id": "sp-sempre-alerta-2026-05-16-073",
        "fonte": "SP Sempre Alerta",
        "tipo": "chuva_intensa",
        "severidade": "moderada",
        "municipio": "São Paulo",
        "estado": "SP",
        "data_ocorrencia": "2026-05-16T09:01:30",
        "descricao": "Defesa Civil do Estado prevê aumento das chuvas, risco de temporais isolados e queda nas temperaturas entre sábado (16) e segunda-feira (18)",
        "url": "https://www.spsemprealerta.sp.gov.br/defesa-civil-alerta/defesa-civil-do-estado-preve-aumento-das-chuvas-risco-de-temporais-isolados-e-queda-nas-temperaturas-entre-sabado-16-e-segunda-feira-18/"
      }
    },
    {
      "type": "Feature",
      "geometry": {
        "type": "Point",
        "coordinates": [
          -46.6333824,
          -23.5506507
        ]
      },
      "properties": {
        "id": "sp-sempre-alerta-2026-05-07-074",
        "fonte": "SP Sempre Alerta",
        "tipo": "vento_forte",
        "severidade": "baixa",
        "municipio": "São Paulo",
        "estado": "SP",
        "data_ocorrencia": "2026-05-07T22:12:14",
        "descricao": "Defesa Civil de SP alerta para ventos fortes, chuva e queda acentuada de temperatura em São Paulo neste fim de semana",
        "url": "https://www.spsemprealerta.sp.gov.br/defesa-civil-alerta/defesa-civil-de-sp-alerta-para-ventos-fortes-chuva-e-queda-acentuada-de-temperatura-em-sao-paulo-neste-fim-de-semana/"
      }
    },
    {
      "type": "Feature",
      "geometry": {
        "type": "Point",
        "coordinates": [
          -46.6333824,
          -23.5506507
        ]
      },
      "properties": {
        "id": "sp-sempre-alerta-2026-04-25-075",
        "fonte": "SP Sempre Alerta",
        "tipo": "chuva_intensa",
        "severidade": "baixa",
        "municipio": "São Paulo",
        "estado": "SP",
        "data_ocorrencia": "2026-04-25T12:04:49",
        "descricao": "Defesa Civil alerta para mudança no tempo e previsão de chuva nos próximos dias em São Paulo",
        "url": "https://www.spsemprealerta.sp.gov.br/defesa-civil-alerta/1546/"
      }
    },
    {
      "type": "Feature",
      "geometry": {
        "type": "Point",
        "coordinates": [
          -46.5527464,
          -23.1378393
        ]
      },
      "properties": {
        "id": "sp-sempre-alerta-2026-03-20-076",
        "fonte": "SP Sempre Alerta",
        "tipo": "outro",
        "severidade": "baixa",
        "municipio": "São Paulo",
        "estado": "SP",
        "data_ocorrencia": "2026-03-20T15:03:01",
        "descricao": "Defesa Civil prevê tempo estável e calor no primeiro fim de semana de outono, com pancadas isoladas de chuva no interior",
        "url": "https://www.spsemprealerta.sp.gov.br/defesa-civil-alerta/defesa-civil-preve-tempo-estavel-e-calor-no-primeiro-fim-de-semana-de-outono-com-pancadas-isoladas-de-chuva-no-interior/"
      }
    },
    {
      "type": "Feature",
      "geometry": {
        "type": "Point",
        "coordinates": [
          -46.6333824,
          -23.5506507
        ]
      },
      "properties": {
        "id": "sp-sempre-alerta-2026-03-18-077",
        "fonte": "SP Sempre Alerta",
        "tipo": "chuva_intensa",
        "severidade": "moderada",
        "municipio": "São Paulo",
        "estado": "SP",
        "data_ocorrencia": "2026-03-18T17:02:59",
        "descricao": "Defesa Civil alerta para risco de temporais no Estado nesta quinta-feira (19) e chuvas na sexta-feira (20)",
        "url": "https://www.spsemprealerta.sp.gov.br/defesa-civil-alerta/defesa-civil-alerta-para-risco-de-temporais-no-estado-nesta-quinta-feira-19-e-chuvas-na-sexta-feira-20/"
      }
    },
    {
      "type": "Feature",
      "geometry": {
        "type": "Point",
        "coordinates": [
          -46.6333824,
          -23.5506507
        ]
      },
      "properties": {
        "id": "sp-sempre-alerta-2026-03-16-078",
        "fonte": "SP Sempre Alerta",
        "tipo": "chuva_intensa",
        "severidade": "baixa",
        "municipio": "São Paulo",
        "estado": "SP",
        "data_ocorrencia": "2026-03-16T14:09:21",
        "descricao": "Defesa Civil alerta para possibilidade de pancadas de chuva no interior do Estado entre segunda (16) e terça-feira (17)",
        "url": "https://www.spsemprealerta.sp.gov.br/defesa-civil-alerta/defesa-civil-alerta-para-possibilidade-de-pancadas-de-chuva-no-interior-do-estado-entre-segunda-16-e-terca-feira-17/"
      }
    },
    {
      "type": "Feature",
      "geometry": {
        "type": "Point",
        "coordinates": [
          -46.6333824,
          -23.5506507
        ]
      },
      "properties": {
        "id": "sp-sempre-alerta-2026-03-13-079",
        "fonte": "SP Sempre Alerta",
        "tipo": "chuva_intensa",
        "severidade": "baixa",
        "municipio": "São Paulo",
        "estado": "SP",
        "data_ocorrencia": "2026-03-13T14:16:13",
        "descricao": "Defesa Civil prevê mudança no tempo e indica trégua da chuva no Estado de São Paulo",
        "url": "https://www.spsemprealerta.sp.gov.br/defesa-civil-alerta/defesa-civil-preve-mudanca-no-tempo-e-indica-tregua-da-chuva-no-estado-de-sao-paulo/"
      }
    },
    {
      "type": "Feature",
      "geometry": {
        "type": "Point",
        "coordinates": [
          -46.6333824,
          -23.5506507
        ]
      },
      "properties": {
        "id": "sp-sempre-alerta-2026-03-10-080",
        "fonte": "SP Sempre Alerta",
        "tipo": "chuva_intensa",
        "severidade": "baixa",
        "municipio": "São Paulo",
        "estado": "SP",
        "data_ocorrencia": "2026-03-10T16:06:32",
        "descricao": "Defesa Civil do Estado mantém Gabinete de Crise ativo e alerta para chuvas intensas entre segunda-feira (9) e quarta-feira (11)",
        "url": "https://www.spsemprealerta.sp.gov.br/defesa-civil-alerta/defesa-civil-do-estado-mantem-gabinete-de-crise-ativo-e-alerta-para-chuvas-intensas-entre-segunda-feira-9-e-quarta-feira-11/"
      }
    },
    {
      "type": "Feature",
      "geometry": {
        "type": "Point",
        "coordinates": [
          -51.4254316,
          -22.2388976
        ]
      },
      "properties": {
        "id": "sp-sempre-alerta-2026-02-20-081",
        "fonte": "SP Sempre Alerta",
        "tipo": "chuva_intensa",
        "severidade": "baixa",
        "municipio": "São Paulo",
        "estado": "SP",
        "data_ocorrencia": "2026-02-20T16:49:23",
        "descricao": "Defesa Civil alerta para chuva persistente no fim de semana na faixa leste do Estado",
        "url": "https://www.spsemprealerta.sp.gov.br/defesa-civil-alerta/defesa-civil-alerta-para-chuva-persistente-no-fim-de-semana-na-faixa-leste-do-estado/"
      }
    },
    {
      "type": "Feature",
      "geometry": {
        "type": "Point",
        "coordinates": [
          -46.6333824,
          -23.5506507
        ]
      },
      "properties": {
        "id": "sp-sempre-alerta-2026-02-13-082",
        "fonte": "SP Sempre Alerta",
        "tipo": "chuva_intensa",
        "severidade": "baixa",
        "municipio": "São Paulo",
        "estado": "SP",
        "data_ocorrencia": "2026-02-13T17:22:51",
        "descricao": "Defesa Civil aponta para Carnaval com calor e chuvas em São Paulo e mudança na segunda",
        "url": "https://www.spsemprealerta.sp.gov.br/defesa-civil-alerta/defesa-civil-aponta-para-carnaval-com-calor-e-chuvas-em-sao-paulo-e-mudanca-na-segunda/"
      }
    },
    {
      "type": "Feature",
      "geometry": {
        "type": "Point",
        "coordinates": [
          -46.6333824,
          -23.5506507
        ]
      },
      "properties": {
        "id": "sp-sempre-alerta-2026-02-07-083",
        "fonte": "SP Sempre Alerta",
        "tipo": "chuva_intensa",
        "severidade": "alta",
        "municipio": "São Paulo",
        "estado": "SP",
        "data_ocorrencia": "2026-02-07T06:26:49",
        "descricao": "Defesa Civil do Estado alerta para risco de chuvas fortes e persistentes em São Paulo",
        "url": "https://www.spsemprealerta.sp.gov.br/defesa-civil-alerta/defesa-civil-do-estado-alerta-para-risco-de-chuvas-fortes-e-persistentes-em-sao-paulo/"
      }
    },
    {
      "type": "Feature",
      "geometry": {
        "type": "Point",
        "coordinates": [
          -46.6333824,
          -23.5506507
        ]
      },
      "properties": {
        "id": "sp-sempre-alerta-2026-02-01-084",
        "fonte": "SP Sempre Alerta",
        "tipo": "chuva_intensa",
        "severidade": "moderada",
        "municipio": "São Paulo",
        "estado": "SP",
        "data_ocorrencia": "2026-02-01T17:42:23",
        "descricao": "Defesa Civil do Estado alerta para risco de chuvas fortes e tempestades em São Paulo",
        "url": "https://www.spsemprealerta.sp.gov.br/defesa-civil-alerta/defesa-civil-do-estado-alerta-para-risco-de-chuvas-fortes-e-tempestades-em-sao-paulo/"
      }
    },
    {
      "type": "Feature",
      "geometry": {
        "type": "Point",
        "coordinates": [
          -46.6333824,
          -23.5506507
        ]
      },
      "properties": {
        "id": "sp-sempre-alerta-2026-01-29-085",
        "fonte": "SP Sempre Alerta",
        "tipo": "chuva_intensa",
        "severidade": "baixa",
        "municipio": "São Paulo",
        "estado": "SP",
        "data_ocorrencia": "2026-01-29T06:24:39",
        "descricao": "Defesa Civil do Estado alerta para temporais e chuvas persistentes nesta sexta-feira (30)",
        "url": "https://www.spsemprealerta.sp.gov.br/defesa-civil-alerta/defesa-civil-do-estado-alerta-para-temporais-e-chuvas-persistentes-nesta-sexta-feira-30/"
      }
    },
    {
      "type": "Feature",
      "geometry": {
        "type": "Point",
        "coordinates": [
          -46.6333824,
          -23.5506507
        ]
      },
      "properties": {
        "id": "sp-sempre-alerta-2026-01-16-086",
        "fonte": "SP Sempre Alerta",
        "tipo": "chuva_intensa",
        "severidade": "alta",
        "municipio": "São Paulo",
        "estado": "SP",
        "data_ocorrencia": "2026-01-16T16:17:49",
        "descricao": "Defesa Civil de São Paulo renova alerta para chuvas intensas e mobiliza Gabinete de Crise nos dias mais críticos",
        "url": "https://www.spsemprealerta.sp.gov.br/defesa-civil-alerta/defesa-civil-de-sao-paulo-renova-alerta-para-chuvas-intensas-e-mobiliza-gabinete-de-crise-nos-dias-mais-criticos/"
      }
    },
    {
      "type": "Feature",
      "geometry": {
        "type": "Point",
        "coordinates": [
          -46.6333824,
          -23.5506507
        ]
      },
      "properties": {
        "id": "sp-sempre-alerta-2026-01-14-087",
        "fonte": "SP Sempre Alerta",
        "tipo": "chuva_intensa",
        "severidade": "moderada",
        "municipio": "São Paulo",
        "estado": "SP",
        "data_ocorrencia": "2026-01-14T08:50:01",
        "descricao": "Defesa Civil do estado alerta para risco de chuvas fortes e tempestades em São Paulo",
        "url": "https://www.spsemprealerta.sp.gov.br/defesa-civil-alerta/defesa-civil-do-estado-alerta-para-risco-de-chuvas-fortes-e-tempestades-em-sao-paulo-entre-quarta-feira-14-e-sexta-feira-16-a-previsao-indica-volumes-elevados-de-chuva-com-raios-ventos-fortes/"
      }
    },
    {
      "type": "Feature",
      "geometry": {
        "type": "Point",
        "coordinates": [
          -43.2093727,
          -22.9110137
        ]
      },
      "properties": {
        "id": "g1-2018-02-27-088",
        "fonte": "G1",
        "tipo": "outro",
        "severidade": "baixa",
        "municipio": "Rio de Janeiro",
        "estado": "RJ",
        "data_ocorrencia": "2018-02-27T13:16:16-03:00",
        "descricao": "\"Tem que acabar a justiça!\", \"Quem tá na rua de madrugada tá procurando confusão!\", \"Ambiente de música é ambiente de droga!\", \"É tudo uma conspiração de grupos internacionais!\", \"Os americanos são verdadeiros patriotas! O Brasil é que é uma bagunça!\"Parecem frases retiradas de comentários de portais de notícia. Mas são petardos disparados pelos personagens criados pelos humoristas Caito Mainier e Daniel Furlan, que após a consagração na internet brilharam na cobertura que o Sportv fez das Olimpíadas de Inverno de PyeongChang, encerrados na semana passada.Muito se fala, e muito se teme o fenômeno de comentaristas de portal. Conservadores, incultos, misóginos, preconceituosos e intolerantes, eles seriam e representariam o brasileiro que não gostaríamos de ser. O povo que não gostaríamos de ser. A voz que a internet dá a \"qualquer um\" teria revelado que não somos, na verdade, o povo que um dia salvaria o mundo com sua alegria e tolerância. Não nos imaginávamos tão selvagens. Tão feios. E desanimamos.Mas Daniel e Caito perceberam que conservadores incultos, misóginos, preconceituosos e intolerantes são, acima de tudo, patéticos. E, como tudo o que é patético, muito engraçados. E então criaram personagens que são paródias do patético inculto conservador. E passaram a fazer as pessoas rirem disso.Só ao fim da 2ª Guerra Mundial é que fomos nos dar conta de que Benito Mussolini era tosco e engraçado. Hoje, reconhecemos em tempo real a tosquice e a consequente graça de Donald Trump e Kim Jong-un. Rir de algo tão violento, desumano e, por isso, criminoso, é a vacina mais eficaz contra a praga do inculto conservador. Ter visto, durante a corbertura dos jogos de PyeongChang, os personagens Cerginho da Pereira Nunes e Craque Daniel tocarem o programa Falha de Cobertura, uma paródia de mesa redonda de esportes, fora da Internet, em um grande veículo de comunicação, aponta para uma uma certa vontade da TV em estar atentas aos produtos contraculturais que aparecem na rede.A Internet é conservadora, porque livre. O pensamento conservador é o raciocínio humano em seu estágio primitivo. O Homem das Cavernas era conservador. Evoluímos. Mas o Homem das Cavernas ainda é maioria.  Os personagens do Caito e Furlan são preconceituosos, mal informados e alienados. São contra ciclovias, ciências humanas e vocabulários ricos.  Escancarando essa alienação, escancarando como é feio e tosco (e engraçado) ter opiniões medievais, alienar-se em um país onde a desigualdade social, e ano de eleição, e fazer tudo isso despretensiosamente, os dois operam um milagre: conseguem falar diretamente com o público conservador, que também adoram os personagens, sem desconfiar que se trata de uma tiração de onda com este público.Política, discordo com o competente e talentoso Thiago Leifert, não só combina com o esporte, como o potencializa. \"Esporte sem partido\" é como \"Escola sem partido\": pura alienação. Que tem como consequência (ela, a alienação) a miséria na qual vivemos.Furlan e Caito (e seus não menos talentosos colegas do canal TV Quase) nos lembraram, na estreia de Falha de Cobertura na TV, que é isso e muito mais: Esporte combina, e se engrandece, não só com política. Mas também com humor.\nForte abraço!",
        "url": "https://g1.globo.com/rio-de-janeiro/blog/dodo-azevedo/post/falha-de-cobertura.html"
      }
    },
    {
      "type": "Feature",
      "geometry": {
        "type": "Point",
        "coordinates": [
          -47.4582864,
          -23.5003451
        ]
      },
      "properties": {
        "id": "g1-2018-07-22-089",
        "fonte": "G1",
        "tipo": "outro",
        "severidade": "baixa",
        "municipio": "Sorocaba",
        "estado": "SP",
        "data_ocorrencia": "2018-07-22T19:08:18Z",
        "descricao": "Show do artista trouxe clássicos como Avôhai, Chão de Giz e Sinônimos, além da interpretação de Gita e Medo da Chuva, de Raul Seixas.",
        "url": "https://g1.globo.com/sp/sorocaba-jundiai/noticia/2018/07/22/ze-ramalho-lembra-sucessos-e-invoca-raul-seixas-na-festa-junina-de-sorocaba.ghtml"
      }
    },
    {
      "type": "Feature",
      "geometry": {
        "type": "Point",
        "coordinates": [
          -49.3804212,
          -20.8125851
        ]
      },
      "properties": {
        "id": "g1-2018-07-17-090",
        "fonte": "G1",
        "tipo": "outro",
        "severidade": "baixa",
        "municipio": "São José do Rio Preto",
        "estado": "SP",
        "data_ocorrencia": "2018-07-17T16:06:59Z",
        "descricao": "No evento são oferecidas mais de 400 vagas de emprego em vários setores. Horário de funcionamento é das 11h às 20h.",
        "url": "https://g1.globo.com/sp/sorocaba-jundiai/concursos-e-emprego/noticia/etec-faz-feira-voltada-para-emprego-e-estagio-em-rio-preto.ghtml"
      }
    }
  ]
}